start=new Date('2022-05-04T00:00:00.000Z').valueOf();
sats=[{"PERIOD":"95.592","MEAN_MOTION":"15.06398774","BSTAR":"0.00014205000000","OBJECT_ID":"2021-018S","TLE_LINE1":"1 47803U 21018S   22123.54260650  .00001835  00000-0  14205-3 0  9994","OBJECT_TYPE":"PAYLOAD","FILE":"3427159","INCLINATION":"53.0555","DECAY_DATE":null,"GP_ID":"202600939","OBJECT_NAME":"STARLINK-2384","NORAD_CAT_ID":"47803","PERIAPSIS":"545.898","LAUNCH_DATE":"2021-03-11","REF_FRAME":"TEME","MEAN_ANOMALY":"307.7048","EPOCH":"2022-05-03T13:01:21.201600","SITE":"AFETR","EPHEMERIS_TYPE":"0","ECCENTRICITY":"0.00019050","COUNTRY_CODE":"US","MEAN_MOTION_DDOT":"0.0000000000000","CLASSIFICATION_TYPE":"U","ARG_OF_PERICENTER":"52.4113","RCS_SIZE":"LARGE","TIME_SYSTEM":"UTC","RA_OF_ASC_NODE":"64.0640","TLE_LINE2":"2 47803  53.0555  64.0640 0001905  52.4113 307.7048 15.06398774 64939","CENTER_NAME":"EARTH","MEAN_ELEMENT_THEORY":"SGP4","APOAPSIS":"548.537","REV_AT_EPOCH":"6493","ELEMENT_SET_NO":"999","MEAN_MOTION_DOT":"0.00001835","SEMIMAJOR_AXIS":"6925.352"},{"MEAN_MOTION_DOT":"0.00001834","ELEMENT_SET_NO":"999","SEMIMAJOR_AXIS":"6925.347","TLE_LINE2":"2 47804  53.0573  62.8089 0001638  52.0960 308.0177 15.06400400 64973","CENTER_NAME":"EARTH","RA_OF_ASC_NODE":"62.8089","APOAPSIS":"548.347","MEAN_ELEMENT_THEORY":"SGP4","REV_AT_EPOCH":"6497","ARG_OF_PERICENTER":"52.0960","TIME_SYSTEM":"UTC","RCS_SIZE":"LARGE","SITE":"AFETR","EPHEMERIS_TYPE":"0","ECCENTRICITY":"0.00016380","MEAN_MOTION_DDOT":"0.0000000000000","COUNTRY_CODE":"US","CLASSIFICATION_TYPE":"U","MEAN_ANOMALY":"308.0177","REF_FRAME":"TEME","EPOCH":"2022-05-03T19:44:44.173536","FILE":"3427573","INCLINATION":"53.0573","OBJECT_TYPE":"PAYLOAD","DECAY_DATE":null,"PERIAPSIS":"546.078","LAUNCH_DATE":"2021-03-11","GP_ID":"202635112","OBJECT_NAME":"STARLINK-2385","NORAD_CAT_ID":"47804","OBJECT_ID":"2021-018T","BSTAR":"0.00014196000000","TLE_LINE1":"1 47804U 21018T   22123.82273349  .00001834  00000-0  14196-3 0  9993","PERIOD":"95.592","MEAN_MOTION":"15.06400400"},{"CLASSIFICATION_TYPE":"U","COUNTRY_CODE":"US","MEAN_MOTION_DDOT":"0.0000000000000","ECCENTRICITY":"0.00018660","SITE":"AFETR","EPHEMERIS_TYPE":"0","RCS_SIZE":"LARGE","TIME_SYSTEM":"UTC","ARG_OF_PERICENTER":"55.2375","REV_AT_EPOCH":"6459","APOAPSIS":"548.497","MEAN_ELEMENT_THEORY":"SGP4","RA_OF_ASC_NODE":"63.9461","TLE_LINE2":"2 47805  53.0568  63.9461 0001866  55.2375 304.8789 15.06402954 64599","CENTER_NAME":"EARTH","SEMIMAJOR_AXIS":"6925.340","ELEMENT_SET_NO":"999","MEAN_MOTION_DOT":"0.00001797","MEAN_MOTION":"15.06402954","PERIOD":"95.592","TLE_LINE1":"1 47805U 21018U   22123.56746282  .00001797  00000-0  13948-3 0  9998","OBJECT_ID":"2021-018U","BSTAR":"0.00013948000000","GP_ID":"202607536","NORAD_CAT_ID":"47805","OBJECT_NAME":"STARLINK-2386","LAUNCH_DATE":"2021-03-11","PERIAPSIS":"545.912","DECAY_DATE":null,"OBJECT_TYPE":"PAYLOAD","FILE":"3427353","INCLINATION":"53.0568","EPOCH":"2022-05-03T13:37:08.787648","REF_FRAME":"TEME","MEAN_ANOMALY":"304.8789"},{"ECCENTRICITY":"0.00021670","SITE":"AFETR","EPHEMERIS_TYPE":"0","CLASSIFICATION_TYPE":"U","MEAN_MOTION_DDOT":"0.0000000000000","COUNTRY_CODE":"US","TIME_SYSTEM":"UTC","RCS_SIZE":"LARGE","ARG_OF_PERICENTER":"45.5053","MEAN_ELEMENT_THEORY":"SGP4","APOAPSIS":"548.724","CENTER_NAME":"EARTH","TLE_LINE2":"2 47806  53.0550  80.3181 0002167  45.5053 314.6112 15.06396949 64745","RA_OF_ASC_NODE":"80.3181","REV_AT_EPOCH":"6474","MEAN_MOTION_DOT":"0.00000202","ELEMENT_SET_NO":"999","SEMIMAJOR_AXIS":"6925.358","MEAN_MOTION":"15.06396949","PERIOD":"95.592","OBJECT_ID":"2021-018V","BSTAR":"0.00003247600000","TLE_LINE1":"1 47806U 21018V   22123.26198836  .00000202  00000-0  32476-4 0  9990","DECAY_DATE":null,"FILE":"3427159","INCLINATION":"53.0550","OBJECT_TYPE":"PAYLOAD","PERIAPSIS":"545.722","LAUNCH_DATE":"2021-03-11","OBJECT_NAME":"STARLINK-2387","GP_ID":"202600690","NORAD_CAT_ID":"47806","REF_FRAME":"TEME","EPOCH":"2022-05-03T06:17:15.794304","MEAN_ANOMALY":"314.6112"},{"CLASSIFICATION_TYPE":"U","MEAN_MOTION_DDOT":"0.0000000000000","COUNTRY_CODE":"US","ECCENTRICITY":"0.00018380","SITE":"AFETR","EPHEMERIS_TYPE":"0","RCS_SIZE":"LARGE","TIME_SYSTEM":"UTC","ARG_OF_PERICENTER":"42.0760","REV_AT_EPOCH":"6510","APOAPSIS":"548.494","MEAN_ELEMENT_THEORY":"SGP4","RA_OF_ASC_NODE":"52.9852","CENTER_NAME":"EARTH","TLE_LINE2":"2 47807  53.0578  52.9852 0001838  42.0760 318.0370 15.06397573 65106","SEMIMAJOR_AXIS":"6925.356","ELEMENT_SET_NO":"999","MEAN_MOTION_DOT":"0.00002797","MEAN_MOTION":"15.06397573","PERIOD":"95.592","TLE_LINE1":"1 47807U 21018W   22123.78311929  .00002797  00000-0  20664-3 0  9994","OBJECT_ID":"2021-018W","BSTAR":"0.00020664000000","GP_ID":"202634363","NORAD_CAT_ID":"47807","OBJECT_NAME":"STARLINK-2388","PERIAPSIS":"545.948","LAUNCH_DATE":"2021-03-11","DECAY_DATE":null,"OBJECT_TYPE":"PAYLOAD","FILE":"3427573","INCLINATION":"53.0578","REF_FRAME":"TEME","MEAN_ANOMALY":"318.0370","EPOCH":"2022-05-03T18:47:41.506656"},{"ARG_OF_PERICENTER":"56.8997","RCS_SIZE":"LARGE","TIME_SYSTEM":"UTC","SITE":"AFETR","EPHEMERIS_TYPE":"0","ECCENTRICITY":"0.00018070","MEAN_MOTION_DDOT":"0.0000000000000","COUNTRY_CODE":"US","CLASSIFICATION_TYPE":"U","MEAN_MOTION_DOT":"0.00002023","ELEMENT_SET_NO":"999","SEMIMAJOR_AXIS":"6925.354","RA_OF_ASC_NODE":"77.5603","CENTER_NAME":"EARTH","TLE_LINE2":"2 47808  53.0552  77.5603 0001807  56.8997 303.2165 15.06398286 64836","APOAPSIS":"548.470","MEAN_ELEMENT_THEORY":"SGP4","REV_AT_EPOCH":"6483","BSTAR":"0.00015470000000","OBJECT_ID":"2021-018X","TLE_LINE1":"1 47808U 21018X   22123.87848612  .00002023  00000-0  15470-3 0  9990","PERIOD":"95.592","MEAN_MOTION":"15.06398286","MEAN_ANOMALY":"303.2165","REF_FRAME":"TEME","EPOCH":"2022-05-03T21:05:01.200768","OBJECT_TYPE":"PAYLOAD","FILE":"3427573","INCLINATION":"53.0552","DECAY_DATE":null,"GP_ID":"202634614","OBJECT_NAME":"STARLINK-2389","NORAD_CAT_ID":"47808","PERIAPSIS":"545.967","LAUNCH_DATE":"2021-03-11"},{"SEMIMAJOR_AXIS":"6925.337","MEAN_MOTION_DOT":"0.00002285","ELEMENT_SET_NO":"999","REV_AT_EPOCH":"6476","CENTER_NAME":"EARTH","TLE_LINE2":"2 47809  53.0563  82.5256 0001608  48.0994 312.0132 15.06403807 64768","RA_OF_ASC_NODE":"82.5256","MEAN_ELEMENT_THEORY":"SGP4","APOAPSIS":"548.315","ARG_OF_PERICENTER":"48.0994","TIME_SYSTEM":"UTC","RCS_SIZE":"LARGE","COUNTRY_CODE":"US","MEAN_MOTION_DDOT":"0.0000000000000","CLASSIFICATION_TYPE":"U","SITE":"AFETR","EPHEMERIS_TYPE":"0","ECCENTRICITY":"0.00016080","EPOCH":"2022-05-03T21:12:18.703584","REF_FRAME":"TEME","MEAN_ANOMALY":"312.0132","LAUNCH_DATE":"2021-03-11","PERIAPSIS":"546.088","OBJECT_NAME":"STARLINK-2390","GP_ID":"202633362","NORAD_CAT_ID":"47809","INCLINATION":"53.0563","FILE":"3427573","OBJECT_TYPE":"PAYLOAD","DECAY_DATE":null,"TLE_LINE1":"1 47809U 21018Y   22123.88354981  .00002285  00000-0  17226-3 0  9994","OBJECT_ID":"2021-018Y","BSTAR":"0.00017226000000","PERIOD":"95.592","MEAN_MOTION":"15.06403807"},{"LAUNCH_DATE":"2021-03-11","PERIAPSIS":"546.080","OBJECT_NAME":"STARLINK-2391","GP_ID":"202634109","NORAD_CAT_ID":"47810","DECAY_DATE":null,"FILE":"3427573","INCLINATION":"53.0560","OBJECT_TYPE":"PAYLOAD","REF_FRAME":"TEME","EPOCH":"2022-05-03T21:48:08.027136","MEAN_ANOMALY":"300.4219","MEAN_MOTION":"15.06403848","PERIOD":"95.592","TLE_LINE1":"1 47810U 21018Z   22123.90842624  .00001244  00000-0  10242-3 0  9990","OBJECT_ID":"2021-018Z","BSTAR":"0.00010242000000","REV_AT_EPOCH":"6462","APOAPSIS":"548.324","MEAN_ELEMENT_THEORY":"SGP4","CENTER_NAME":"EARTH","TLE_LINE2":"2 47810  53.0560  92.4278 0001620  59.6930 300.4219 15.06403848 64620","RA_OF_ASC_NODE":"92.4278","SEMIMAJOR_AXIS":"6925.337","ELEMENT_SET_NO":"999","MEAN_MOTION_DOT":"0.00001244","CLASSIFICATION_TYPE":"U","COUNTRY_CODE":"US","MEAN_MOTION_DDOT":"0.0000000000000","ECCENTRICITY":"0.00016200","SITE":"AFETR","EPHEMERIS_TYPE":"0","TIME_SYSTEM":"UTC","RCS_SIZE":"LARGE","ARG_OF_PERICENTER":"59.6930"},{"EPOCH":"2022-05-03T13:11:58.679808","REF_FRAME":"TEME","MEAN_ANOMALY":"301.8299","NORAD_CAT_ID":"47811","GP_ID":"202600940","OBJECT_NAME":"STARLINK-2392","PERIAPSIS":"546.048","LAUNCH_DATE":"2021-03-11","OBJECT_TYPE":"PAYLOAD","FILE":"3427159","INCLINATION":"53.0554","DECAY_DATE":null,"TLE_LINE1":"1 47811U 21018AA  22123.54998472  .00000971  00000-0  84082-4 0  9994","OBJECT_ID":"2021-018AA","BSTAR":"0.00008408200000","PERIOD":"95.593","MEAN_MOTION":"15.06388101","SEMIMAJOR_AXIS":"6925.385","ELEMENT_SET_NO":"999","MEAN_MOTION_DOT":"0.00000971","REV_AT_EPOCH":"6499","RA_OF_ASC_NODE":"64.0285","TLE_LINE2":"2 47811  53.0554  64.0285 0001736  58.2859 301.8299 15.06388101 64997","CENTER_NAME":"EARTH","APOAPSIS":"548.452","MEAN_ELEMENT_THEORY":"SGP4","ARG_OF_PERICENTER":"58.2859","RCS_SIZE":"LARGE","TIME_SYSTEM":"UTC","MEAN_MOTION_DDOT":"0.0000000000000","COUNTRY_CODE":"US","CLASSIFICATION_TYPE":"U","SITE":"AFETR","EPHEMERIS_TYPE":"0","ECCENTRICITY":"0.00017360"},{"ELEMENT_SET_NO":"999","MEAN_MOTION_DOT":"0.00001995","SEMIMAJOR_AXIS":"6925.346","APOAPSIS":"548.463","MEAN_ELEMENT_THEORY":"SGP4","CENTER_NAME":"EARTH","TLE_LINE2":"2 47812  53.0560  92.6756 0001807  46.7135 313.4005 15.06400728 64559","RA_OF_ASC_NODE":"92.6756","REV_AT_EPOCH":"6455","TIME_SYSTEM":"UTC","RCS_SIZE":"LARGE","ARG_OF_PERICENTER":"46.7135","ECCENTRICITY":"0.00018070","EPHEMERIS_TYPE":"0","SITE":"AFETR","CLASSIFICATION_TYPE":"U","MEAN_MOTION_DDOT":"0.0000000000000","COUNTRY_CODE":"US","MEAN_ANOMALY":"313.4005","REF_FRAME":"TEME","EPOCH":"2022-05-03T20:28:32.242944","DECAY_DATE":null,"INCLINATION":"53.0560","FILE":"3427573","OBJECT_TYPE":"PAYLOAD","LAUNCH_DATE":"2021-03-11","PERIAPSIS":"545.960","GP_ID":"202635113","NORAD_CAT_ID":"47812","OBJECT_NAME":"STARLINK-2393","BSTAR":"0.00015281000000","OBJECT_ID":"2021-018AB","TLE_LINE1":"1 47812U 21018AB  22123.85315096  .00001995  00000-0  15281-3 0  9995","MEAN_MOTION":"15.06400728","PERIOD":"95.592"}];
